ONEWEB-0235             
1 48771U 21045E   25208.81985896 -.00000073  00000+0 -22667-3 0  9997
2 48771  87.9082 323.8704 0002417  90.6271 269.5136 13.15549282202858
ONEWEB-0242             
1 48772U 21045F   25208.81351064 -.00000110  00000+0 -32681-3 0  9991
2 48772  87.9081 323.8566 0002146  98.8032 261.3341 13.15549879202904
ONEWEB-0241             
1 48773U 21045G   25208.87689600 -.00000116  00000+0 -34090-3 0  9990
2 48773  87.9066 323.8986 0001974  85.4667 274.6689 13.15549040202821
ONEWEB-0243             
1 48774U 21045H   25208.60434944  .00000152  00000+0  37081-3 0  9992
2 48774  87.9089 323.9458 0002341  93.8011 266.3387 13.15547482201681
ONEWEB-0222             
1 48775U 21045J   25208.89195661 -.00000099  00000+0 -29710-3 0  9996
2 48775  87.9078 323.8450 0001952  93.6324 266.5029 13.15548354202880
ONEWEB-0244             
1 48776U 21045K   25208.61385749  .00000201  00000+0  50020-3 0  9996
2 48776  87.9080 323.8802 0002112  99.9656 260.1712 13.15548045202292
ONEWEB-0247             
1 48777U 21045L   25208.83886229  .00000113  00000+0  26551-3 0  9994
2 48777  87.9084 323.9084 0002807  87.8956 272.2496 13.15547120202892
ONEWEB-0245             
1 48778U 21045M   25208.60593275  .00000067  00000+0  14287-3 0  9997
2 48778  87.9079 323.9183 0001867  92.0013 268.1331 13.15547538201708
