<?xml version="1.0" encoding="UTF-8"?>
<ndm xmlns:xsi="http://www.w3.org/2001/XMLSchema-instance" xsi:noNamespaceSchemaLocation="https://sanaregistry.org/r/ndmxml_unqualified/ndmxml-2.0.0-master-2.0.xsd">
<omm id="CCSDS_OMM_VERS" version="2.0">
<header><CREATION_DATE/><ORIGINATOR/></header><body><segment><metadata><OBJECT_NAME>ONEWEB-0235</OBJECT_NAME><OBJECT_ID>2021-045E</OBJECT_ID><CENTER_NAME>EARTH</CENTER_NAME><REF_FRAME>TEME</REF_FRAME><TIME_SYSTEM>UTC</TIME_SYSTEM><MEAN_ELEMENT_THEORY>SGP4</MEAN_ELEMENT_THEORY></metadata><data><meanElements><EPOCH>2025-07-27T19:40:35.814144</EPOCH><MEAN_MOTION>13.15549282</MEAN_MOTION><ECCENTRICITY>.0002417</ECCENTRICITY><INCLINATION>87.9082</INCLINATION><RA_OF_ASC_NODE>323.8704</RA_OF_ASC_NODE><ARG_OF_PERICENTER>90.6271</ARG_OF_PERICENTER><MEAN_ANOMALY>269.5136</MEAN_ANOMALY></meanElements><tleParameters><EPHEMERIS_TYPE>0</EPHEMERIS_TYPE><CLASSIFICATION_TYPE>U</CLASSIFICATION_TYPE><NORAD_CAT_ID>48771</NORAD_CAT_ID><ELEMENT_SET_NO>999</ELEMENT_SET_NO><REV_AT_EPOCH>20285</REV_AT_EPOCH><BSTAR>-.22667E-3</BSTAR><MEAN_MOTION_DOT>-.73E-6</MEAN_MOTION_DOT><MEAN_MOTION_DDOT>0</MEAN_MOTION_DDOT></tleParameters></data></segment></body></omm>
<omm id="CCSDS_OMM_VERS" version="2.0">
<header><CREATION_DATE/><ORIGINATOR/></header><body><segment><metadata><OBJECT_NAME>ONEWEB-0242</OBJECT_NAME><OBJECT_ID>2021-045F</OBJECT_ID><CENTER_NAME>EARTH</CENTER_NAME><REF_FRAME>TEME</REF_FRAME><TIME_SYSTEM>UTC</TIME_SYSTEM><MEAN_ELEMENT_THEORY>SGP4</MEAN_ELEMENT_THEORY></metadata><data><meanElements><EPOCH>2025-07-27T19:31:27.319296</EPOCH><MEAN_MOTION>13.15549879</MEAN_MOTION><ECCENTRICITY>.0002146</ECCENTRICITY><INCLINATION>87.9081</INCLINATION><RA_OF_ASC_NODE>323.8566</RA_OF_ASC_NODE><ARG_OF_PERICENTER>98.8032</ARG_OF_PERICENTER><MEAN_ANOMALY>261.3341</MEAN_ANOMALY></meanElements><tleParameters><EPHEMERIS_TYPE>0</EPHEMERIS_TYPE><CLASSIFICATION_TYPE>U</CLASSIFICATION_TYPE><NORAD_CAT_ID>48772</NORAD_CAT_ID><ELEMENT_SET_NO>999</ELEMENT_SET_NO><REV_AT_EPOCH>20290</REV_AT_EPOCH><BSTAR>-.32681E-3</BSTAR><MEAN_MOTION_DOT>-.11E-5</MEAN_MOTION_DOT><MEAN_MOTION_DDOT>0</MEAN_MOTION_DDOT></tleParameters></data></segment></body></omm>
<omm id="CCSDS_OMM_VERS" version="2.0">
<header><CREATION_DATE/><ORIGINATOR/></header><body><segment><metadata><OBJECT_NAME>ONEWEB-0241</OBJECT_NAME><OBJECT_ID>2021-045G</OBJECT_ID><CENTER_NAME>EARTH</CENTER_NAME><REF_FRAME>TEME</REF_FRAME><TIME_SYSTEM>UTC</TIME_SYSTEM><MEAN_ELEMENT_THEORY>SGP4</MEAN_ELEMENT_THEORY></metadata><data><meanElements><EPOCH>2025-07-27T21:02:43.814400</EPOCH><MEAN_MOTION>13.15549040</MEAN_MOTION><ECCENTRICITY>.0001974</ECCENTRICITY><INCLINATION>87.9066</INCLINATION><RA_OF_ASC_NODE>323.8986</RA_OF_ASC_NODE><ARG_OF_PERICENTER>85.4667</ARG_OF_PERICENTER><MEAN_ANOMALY>274.6689</MEAN_ANOMALY></meanElements><tleParameters><EPHEMERIS_TYPE>0</EPHEMERIS_TYPE><CLASSIFICATION_TYPE>U</CLASSIFICATION_TYPE><NORAD_CAT_ID>48773</NORAD_CAT_ID><ELEMENT_SET_NO>999</ELEMENT_SET_NO><REV_AT_EPOCH>20282</REV_AT_EPOCH><BSTAR>-.3409E-3</BSTAR><MEAN_MOTION_DOT>-.116E-5</MEAN_MOTION_DOT><MEAN_MOTION_DDOT>0</MEAN_MOTION_DDOT></tleParameters></data></segment></body></omm>
<omm id="CCSDS_OMM_VERS" version="2.0">
<header><CREATION_DATE/><ORIGINATOR/></header><body><segment><metadata><OBJECT_NAME>ONEWEB-0243</OBJECT_NAME><OBJECT_ID>2021-045H</OBJECT_ID><CENTER_NAME>EARTH</CENTER_NAME><REF_FRAME>TEME</REF_FRAME><TIME_SYSTEM>UTC</TIME_SYSTEM><MEAN_ELEMENT_THEORY>SGP4</MEAN_ELEMENT_THEORY></metadata><data><meanElements><EPOCH>2025-07-27T14:30:15.791616</EPOCH><MEAN_MOTION>13.15547482</MEAN_MOTION><ECCENTRICITY>.0002341</ECCENTRICITY><INCLINATION>87.9089</INCLINATION><RA_OF_ASC_NODE>323.9458</RA_OF_ASC_NODE><ARG_OF_PERICENTER>93.8011</ARG_OF_PERICENTER><MEAN_ANOMALY>266.3387</MEAN_ANOMALY></meanElements><tleParameters><EPHEMERIS_TYPE>0</EPHEMERIS_TYPE><CLASSIFICATION_TYPE>U</CLASSIFICATION_TYPE><NORAD_CAT_ID>48774</NORAD_CAT_ID><ELEMENT_SET_NO>999</ELEMENT_SET_NO><REV_AT_EPOCH>20168</REV_AT_EPOCH><BSTAR>.37081E-3</BSTAR><MEAN_MOTION_DOT>.152E-5</MEAN_MOTION_DOT><MEAN_MOTION_DDOT>0</MEAN_MOTION_DDOT></tleParameters></data></segment></body></omm>
<omm id="CCSDS_OMM_VERS" version="2.0">
<header><CREATION_DATE/><ORIGINATOR/></header><body><segment><metadata><OBJECT_NAME>ONEWEB-0222</OBJECT_NAME><OBJECT_ID>2021-045J</OBJECT_ID><CENTER_NAME>EARTH</CENTER_NAME><REF_FRAME>TEME</REF_FRAME><TIME_SYSTEM>UTC</TIME_SYSTEM><MEAN_ELEMENT_THEORY>SGP4</MEAN_ELEMENT_THEORY></metadata><data><meanElements><EPOCH>2025-07-27T21:24:25.051104</EPOCH><MEAN_MOTION>13.15548354</MEAN_MOTION><ECCENTRICITY>.0001952</ECCENTRICITY><INCLINATION>87.9078</INCLINATION><RA_OF_ASC_NODE>323.8450</RA_OF_ASC_NODE><ARG_OF_PERICENTER>93.6324</ARG_OF_PERICENTER><MEAN_ANOMALY>266.5029</MEAN_ANOMALY></meanElements><tleParameters><EPHEMERIS_TYPE>0</EPHEMERIS_TYPE><CLASSIFICATION_TYPE>U</CLASSIFICATION_TYPE><NORAD_CAT_ID>48775</NORAD_CAT_ID><ELEMENT_SET_NO>999</ELEMENT_SET_NO><REV_AT_EPOCH>20288</REV_AT_EPOCH><BSTAR>-.2971E-3</BSTAR><MEAN_MOTION_DOT>-.99E-6</MEAN_MOTION_DOT><MEAN_MOTION_DDOT>0</MEAN_MOTION_DDOT></tleParameters></data></segment></body></omm>
<omm id="CCSDS_OMM_VERS" version="2.0">
<header><CREATION_DATE/><ORIGINATOR/></header><body><segment><metadata><OBJECT_NAME>ONEWEB-0244</OBJECT_NAME><OBJECT_ID>2021-045K</OBJECT_ID><CENTER_NAME>EARTH</CENTER_NAME><REF_FRAME>TEME</REF_FRAME><TIME_SYSTEM>UTC</TIME_SYSTEM><MEAN_ELEMENT_THEORY>SGP4</MEAN_ELEMENT_THEORY></metadata><data><meanElements><EPOCH>2025-07-27T14:43:57.287136</EPOCH><MEAN_MOTION>13.15548045</MEAN_MOTION><ECCENTRICITY>.0002112</ECCENTRICITY><INCLINATION>87.9080</INCLINATION><RA_OF_ASC_NODE>323.8802</RA_OF_ASC_NODE><ARG_OF_PERICENTER>99.9656</ARG_OF_PERICENTER><MEAN_ANOMALY>260.1712</MEAN_ANOMALY></meanElements><tleParameters><EPHEMERIS_TYPE>0</EPHEMERIS_TYPE><CLASSIFICATION_TYPE>U</CLASSIFICATION_TYPE><NORAD_CAT_ID>48776</NORAD_CAT_ID><ELEMENT_SET_NO>999</ELEMENT_SET_NO><REV_AT_EPOCH>20229</REV_AT_EPOCH><BSTAR>.5002E-3</BSTAR><MEAN_MOTION_DOT>.201E-5</MEAN_MOTION_DOT><MEAN_MOTION_DDOT>0</MEAN_MOTION_DDOT></tleParameters></data></segment></body></omm>
<omm id="CCSDS_OMM_VERS" version="2.0">
<header><CREATION_DATE/><ORIGINATOR/></header><body><segment><metadata><OBJECT_NAME>ONEWEB-0247</OBJECT_NAME><OBJECT_ID>2021-045L</OBJECT_ID><CENTER_NAME>EARTH</CENTER_NAME><REF_FRAME>TEME</REF_FRAME><TIME_SYSTEM>UTC</TIME_SYSTEM><MEAN_ELEMENT_THEORY>SGP4</MEAN_ELEMENT_THEORY></metadata><data><meanElements><EPOCH>2025-07-27T20:07:57.701856</EPOCH><MEAN_MOTION>13.15547120</MEAN_MOTION><ECCENTRICITY>.0002807</ECCENTRICITY><INCLINATION>87.9084</INCLINATION><RA_OF_ASC_NODE>323.9084</RA_OF_ASC_NODE><ARG_OF_PERICENTER>87.8956</ARG_OF_PERICENTER><MEAN_ANOMALY>272.2496</MEAN_ANOMALY></meanElements><tleParameters><EPHEMERIS_TYPE>0</EPHEMERIS_TYPE><CLASSIFICATION_TYPE>U</CLASSIFICATION_TYPE><NORAD_CAT_ID>48777</NORAD_CAT_ID><ELEMENT_SET_NO>999</ELEMENT_SET_NO><REV_AT_EPOCH>20289</REV_AT_EPOCH><BSTAR>.26551E-3</BSTAR><MEAN_MOTION_DOT>.113E-5</MEAN_MOTION_DOT><MEAN_MOTION_DDOT>0</MEAN_MOTION_DDOT></tleParameters></data></segment></body></omm>
<omm id="CCSDS_OMM_VERS" version="2.0">
<header><CREATION_DATE/><ORIGINATOR/></header><body><segment><metadata><OBJECT_NAME>ONEWEB-0245</OBJECT_NAME><OBJECT_ID>2021-045M</OBJECT_ID><CENTER_NAME>EARTH</CENTER_NAME><REF_FRAME>TEME</REF_FRAME><TIME_SYSTEM>UTC</TIME_SYSTEM><MEAN_ELEMENT_THEORY>SGP4</MEAN_ELEMENT_THEORY></metadata><data><meanElements><EPOCH>2025-07-27T14:32:32.589600</EPOCH><MEAN_MOTION>13.15547538</MEAN_MOTION><ECCENTRICITY>.0001867</ECCENTRICITY><INCLINATION>87.9079</INCLINATION><RA_OF_ASC_NODE>323.9183</RA_OF_ASC_NODE><ARG_OF_PERICENTER>92.0013</ARG_OF_PERICENTER><MEAN_ANOMALY>268.1331</MEAN_ANOMALY></meanElements><tleParameters><EPHEMERIS_TYPE>0</EPHEMERIS_TYPE><CLASSIFICATION_TYPE>U</CLASSIFICATION_TYPE><NORAD_CAT_ID>48778</NORAD_CAT_ID><ELEMENT_SET_NO>999</ELEMENT_SET_NO><REV_AT_EPOCH>20170</REV_AT_EPOCH><BSTAR>.14287E-3</BSTAR><MEAN_MOTION_DOT>.67E-6</MEAN_MOTION_DOT><MEAN_MOTION_DDOT>0</MEAN_MOTION_DDOT></tleParameters></data></segment></body></omm>

</ndm>
